[{"OBJECT_NAME":"STARLINK-6354","OBJECT_ID":"2023-078T","EPOCH":"2026-03-09T23:24:08.751456","MEAN_MOTION":14.98325919,"ECCENTRICITY":0.00024827,"INCLINATION":70.0007,"RA_OF_ASC_NODE":323.8448,"ARG_OF_PERICENTER":254.9219,"MEAN_ANOMALY":105.1665,"EPHEMERIS_TYPE":0,"CLASSIFICATION_TYPE":"U","NORAD_CAT_ID":56784,"ELEMENT_SET_NO":999,"REV_AT_EPOCH":15321,"BSTAR":-6.2120621e-5,"MEAN_MOTION_DOT":-8.34e-6,"MEAN_MOTION_DDOT":0},{"OBJECT_NAME":"CZ-6A R\/B","OBJECT_ID":"2024-126D","EPOCH":"2026-03-09T19:23:06.789408","MEAN_MOTION":15.13279149,"ECCENTRICITY":0.00704729,"INCLINATION":97.7886,"RA_OF_ASC_NODE":97.6113,"ARG_OF_PERICENTER":100.2752,"MEAN_ANOMALY":260.6434,"EPHEMERIS_TYPE":0,"CLASSIFICATION_TYPE":"U","NORAD_CAT_ID":60214,"ELEMENT_SET_NO":999,"REV_AT_EPOCH":9240,"BSTAR":0.00030839807,"MEAN_MOTION_DOT":5.76e-5,"MEAN_MOTION_DDOT":0}]
